GLOBALSTAR M075         
1 37192U 10054E   26016.97010411 -.00000065  00000+0  21421-3 0  9994
2 37192  51.9934 250.6169 0000875  73.2695  31.3882 12.62263658702843
GLOBALSTAR M073         
1 37193U 10054F   26016.73306883 -.00000118  00000+0 -80174-4 0  9991
2 37193  52.0044 165.3207 0001182  92.7630  12.4077 12.62268983704800
GLOBALSTAR M083         
1 37739U 11033A   26016.99796108 -.00000114  00000+0 -56348-4 0  9998
2 37739  51.9855 112.9499 0000814 100.8327  70.4746 12.62266481673858
GLOBALSTAR M088         
1 37740U 11033B   26016.73402054 -.00000096  00000+0  43839-4 0  9995
2 37740  52.0237  19.8136 0000214 105.7622  65.1767 12.62271595669362
GLOBALSTAR M091         
1 37741U 11033C   26016.66823501 -.00000100  00000+0  20279-4 0  9991
2 37741  52.0024 343.2055 0000363  37.0287 133.8658 12.62268623670148
GLOBALSTAR M085         
1 37742U 11033D   26016.95177688 -.00000074  00000+0  16802-3 0  9998
2 37742  52.0141 293.5035 0000765  42.2002  38.3276 12.62268219670699
GLOBALSTAR M081         
1 37743U 11033E   26014.22114887 -.00000092  00000+0  64041-4 0  9998
2 37743  51.9976 304.4229 0000789  52.4090  94.8160 12.62271749670496
GLOBALSTAR M089         
1 37744U 11033F   26016.94339285 -.00000067  00000+0  20795-3 0  9990
2 37744  51.9915 250.3240 0001084  88.5401  14.5954 12.62263622671680
